STARLINK-35763          
1 67089U 25298Q   25364.83336806 -.01699526  00000+0 -23619-1 0  9994
2 67089  69.9995 198.6710 0003475 274.6346 278.9319 15.59702613  3889
STARLINK-36060          
1 67090U 25298R   25364.83336806 -.01690886  00000+0 -23486-1 0  9998
2 67090  69.9996 198.6686 0003576 277.2399 278.2276 15.59701509  3825
STARLINK-36097          
1 67091U 25298S   25364.83336806 -.01645745  00000+0 -23257-1 0  9999
2 67091  69.9992 198.6661 0003466 278.0658 279.3756 15.59685029  3889
STARLINK-35792          
1 67092U 25298T   25364.83336806 -.01709928  00000+0 -23780-1 0  9995
2 67092  69.9992 198.6642 0003530 272.8509 286.4909 15.59702534  3822
STARLINK-35784          
1 67093U 25298U   25364.83336806 -.01697594  00000+0 -23596-1 0  9996
2 67093  69.9994 198.6617 0003472 275.1384 286.1382 15.59695161  3884
STARLINK-36202          
1 67094U 25298V   25364.83336806 -.01693423  00000+0 -23543-1 0  9996
2 67094  69.9992 198.6595 0003472 275.5429 287.7123 15.59682675  3888
STARLINK-36227          
1 67095U 25298W   25364.83336806 -.01705838  00000+0 -23733-1 0  9992
2 67095  69.9993 198.6566 0003459 272.8039 292.3980 15.59684940  3824
STARLINK-36228          
1 67096U 25298X   25364.83336806 -.01625270  00000+0 -22966-1 0  9991
2 67096  69.9993 198.6548 0003620 277.0063 290.1227 15.59640987  3822
STARLINK-36222          
1 67097U 25298Y   25364.83336806 -.01692145  00000+0 -23527-1 0  9991
2 67097  69.9992 198.6519 0003448 274.7124 294.3209 15.59679174  3826
STARLINK-36205          
1 67098U 25298Z   25364.83336806 -.01684441  00000+0 -23421-1 0  9995
2 67098  69.9990 198.6497 0003401 275.9526 295.0602 15.59665125  3880
STARLINK-36193          
1 67099U 25298AA  25364.83336806 -.01825839  00000+0 -33714-1 0  9990
2 67099  70.0098 198.7857 0003642 273.0697 180.6495 15.52301444  3826
STARLINK-36215          
1 67100U 25298AB  25364.83336806 -.01652177  00000+0 -23370-1 0  9993
2 67100  69.9992 198.6426 0003345 276.8769 299.8108 15.59675097  3886
STARLINK-36200          
1 67101U 25298AC  25364.83336806 -.01689229  00000+0 -23486-1 0  9990
2 67101  69.9992 198.6481 0003399 274.7695 298.1192 15.59674667  3889
STARLINK-36255          
1 67102U 25299A   25364.83336806 -.01949606  00000+0 -25714-1 0  9996
2 67102  42.9989 206.2597 0001307 265.4123 274.9182 15.60913794  3713
STARLINK-36256          
1 67103U 25299B   25364.83336806 -.01953013  00000+0 -25741-1 0  9994
2 67103  42.9989 206.2563 0001283 267.2544 274.8039 15.60937692  3710
STARLINK-36258          
1 67104U 25299C   25364.83336806 -.01953944  00000+0 -25739-1 0  9995
2 67104  42.9989 206.2510 0001199 265.0266 278.8122 15.60954046  3715
STARLINK-36261          
1 67105U 25299D   25364.83336806 -.01948910  00000+0 -25644-1 0  9998
2 67105  42.9989 206.2472 0001227 266.4338 279.1134 15.60973824  3712
STARLINK-36259          
1 67106U 25299E   25364.83336806 -.01953752  00000+0 -25693-1 0  9993
2 67106  42.9989 206.2378 0001273 264.0756 285.1305 15.60997099  3714
STARLINK-36196          
1 67107U 25299F   25364.83336806 -.01947118  00000+0 -25605-1 0  9996
2 67107  42.9989 206.2427 0001263 262.9799 284.3706 15.60985668  3718
STARLINK-36208          
1 67108U 25299G   25364.83336806 -.01946377  00000+0 -25579-1 0  9993
2 67108  42.9988 206.2332 0001288 261.9443 289.1136 15.61000399  3715
STARLINK-35764          
1 67109U 25299H   25364.83336806 -.01937909  00000+0 -25455-1 0  9998
2 67109  42.9990 206.2288 0001293 260.3492 292.6050 15.60997371  3608
STARLINK-35781          
1 67110U 25299J   25364.83336806 -.01949559  00000+0 -25613-1 0  9990
2 67110  42.9990 206.2191 0001283 266.0094 290.6961 15.61013932  3661
STARLINK-35875          
1 67111U 25299K   25364.83336806 -.01949057  00000+0 -25612-1 0  9993
2 67111  42.9991 206.2240 0001263 259.3984 295.4474 15.61007145  3604
STARLINK-35906          
1 67112U 25299L   25364.83336806 -.01949940  00000+0 -25603-1 0  9995
2 67112  42.9992 206.2150 0001301 264.5560 293.9300 15.61029333  3601
STARLINK-35789          
1 67113U 25299M   25364.83336806 -.01951938  00000+0 -25620-1 0  9995
2 67113  42.9991 206.2100 0001289 261.8782 298.4174 15.61042256  3605
STARLINK-36180          
1 67114U 25299N   25364.83336806 -.01951015  00000+0 -25603-1 0  9993
2 67114  42.9990 206.2056 0001264 261.0517 301.1307 15.61045697  3710
STARLINK-35892          
1 67115U 25299P   25364.79712470 -.00769619  00000+0 -95432-2 0  9998
2 67115  42.9987 206.4128 0004106 302.0854  57.9611 15.61643931  2489
STARLINK-35738          
1 67116U 25299Q   25364.83336806 -.01943370  00000+0 -25481-1 0  9994
2 67116  42.9991 206.1960 0001337 260.2030 305.7011 15.61053319  3608
STARLINK-35674          
1 67117U 25299R   25364.83336806 -.01952172  00000+0 -25601-1 0  9999
2 67117  42.9991 206.1920 0001283 263.5677 304.1879 15.61065328  3516
STARLINK-35701          
1 67118U 25299S   25364.83336806 -.01954860  00000+0 -25632-1 0  9990
2 67118  42.9988 206.1869 0001243 259.4131 310.2042 15.61074551  3664
STARLINK-36179          
1 67119U 25299T   25364.83336806 -.01936574  00000+0 -25335-1 0  9993
2 67119  42.9990 206.1775 0001292 257.8941 315.2349 15.61099156  3718
STARLINK-36217          
1 67120U 25299U   25364.83336806 -.01949415  00000+0 -25540-1 0  9991
2 67120  42.9987 206.1827 0001360 266.0112 305.3941 15.61083617  3715
STARLINK-36124          
1 67121U 25299V   25364.83336806 -.01951967  00000+0 -25543-1 0  9990
2 67121  42.9992 206.1685 0001323 261.5233 315.3277 15.61119189  3714
STARLINK-36188          
1 67122U 25299W   25364.83336806 -.01946661  00000+0 -25452-1 0  9995
2 67122  42.9992 206.1648 0001361 262.7690 315.8673 15.61131233  3715
STARLINK-36151          
1 67123U 25299X   25364.83336806 -.01956383  00000+0 -25610-1 0  9994
2 67123  42.9991 206.1737 0001349 261.0649 313.9143 15.61118290  3715
STARLINK-36195          
1 67124U 25299Y   25364.83336806 -.01954316  00000+0 -25551-1 0  9993
2 67124  42.9991 206.1598 0001331 257.2393 323.2303 15.61146640  3717
STARLINK-36219          
1 67125U 25299Z   25364.83336806 -.01947019  00000+0 -25437-1 0  9999
2 67125  42.9990 206.1550 0001296 262.2934 319.9873 15.61152757  3712
STARLINK-36223          
1 67126U 25299AA  25364.83336806 -.01956773  00000+0 -25571-1 0  9996
2 67126  42.9989 206.1501 0001397 261.4517 322.7226 15.61162559  3712
STARLINK-36164          
1 67127U 25299AB  25364.83336806 -.01952021  00000+0 -25496-1 0  9995
2 67127  42.9989 206.1455 0001268 257.5253 328.4960 15.61167572  3719
STARLINK-35685          
1 67128U 25299AC  25364.83336806 -.01948423  00000+0 -25474-1 0  9993
2 67128  42.9989 206.1347 0001414 258.1004 332.0262 15.61134633  3712
STARLINK-36214          
1 67129U 25299AD  25364.83336806 -.01945785  00000+0 -25411-1 0  9993
2 67129  42.9988 206.1409 0001377 264.3436 323.6127 15.61159481  3711
STARLINK-36194          
1 67130U 25299AE  25364.83336806 -.01951960  00000+0 -25625-1 0  9994
2 67130  42.9989 206.1300 0001378 261.3502 331.5836 15.61037147  3715
ZIYUAN 3-04 (ZY 3-04)   
1 67131U 25300A   25361.09375736  .00002035  00000+0  94249-4 0  9996
2 67131  97.4921  75.1314 0003125 152.4137 207.7265 15.21251311  1672
CZ-4B R/B               
1 67132U 25300B   25362.20140237  .00052350  30493-5  23618-3 0  9998
2 67132  97.5543  77.1821 0165883 333.4129  25.8691 15.66474008  1896
KUIPER-00144            
1 67133U 25301A   25364.73447573  .00019473  00000+0  56225-3 0  9997
2 67133  51.8706  38.3575 0006490 134.6208 225.5308 15.35661785  3132
KUIPER-00164            
1 67134U 25301B   25364.66276198  .00052242  00000+0  14523-2 0  9998
2 67134  51.8725  38.6285 0003302 113.8089 246.3243 15.36339454  3304
KUIPER-00175            
1 67135U 25301C   25364.72331191  .00046043  00000+0  12641-2 0  9992
2 67135  51.8739  38.2793 0002115  77.0372 283.0850 15.36786022  3205
KUIPER-00179            
1 67136U 25301D   25364.72629853  .00047055  00000+0  13092-2 0  9993
2 67136  51.8733  38.3015 0003402  89.8416 270.2960 15.36360229  3317
KUIPER-00181            
1 67137U 25301E   25364.74430255  .00036533  00000+0  10787-2 0  9999
2 67137  51.8648  38.4181 0010493 158.1600 201.9835 15.34567209  3295
KUIPER-00183            
1 67138U 25301F   25364.74736042  .00030691  00000+0  91662-3 0  9994
2 67138  51.8629  38.4360 0010928 160.7184 199.4216 15.34290161  3309
KUIPER-00184            
1 67139U 25301G   25364.74355330  .00037422  00000+0  11039-2 0  9990
2 67139  51.8639  38.4126 0009116 156.3896 203.7509 15.34598982  3417
KUIPER-00186            
1 67140U 25301H   25364.73831028  .00042193  00000+0  12158-2 0  9998
2 67140  51.8690  38.3818 0007803 144.0585 216.0927 15.35292522  3135
KUIPER-00187            
1 67141U 25301J   25364.73079477  .00043336  00000+0  12185-2 0  9991
2 67141  51.8715  38.3341 0004614 126.9728 233.1681 15.36065511  3134
KUIPER-00188            
1 67142U 25301K   25364.67411786  .00035832  00000+0  10384-2 0  9999
2 67142  51.8702  38.7020 0007529 147.3971 212.7481 15.35191161  3124
KUIPER-00191            
1 67143U 25301L   25364.73711299  .00034669  00000+0  10001-2 0  9992
2 67143  51.8679  38.3745 0006719 145.3078 214.8347 15.35356543  3169
KUIPER-00196            
1 67144U 25301M   25364.72893770  .00046181  00000+0  12939-2 0  9991
2 67144  51.8730  38.3204 0003845 106.8000 253.3409 15.36149132  3131
KUIPER-00204            
1 67145U 25301N   25364.72397497  .00045421  00000+0  12490-2 0  9995
2 67145  51.8742  38.2825 0002042  97.9569 262.1649 15.36743279  3249
KUIPER-00210            
1 67146U 25301P   25364.68135536  .00028873  00000+0  85983-3 0  9995
2 67146  51.8615  38.7429 0010433 162.9248 197.2090 15.34418835  3292
KUIPER-00221            
1 67147U 25301Q   25364.73182083  .00052866  00000+0  14905-2 0  9995
2 67147  51.8721  38.3404 0004889 123.3038 236.8416 15.35890585  3138
